VICTUS HAZE PUMA        
1 69646U 26142A   26200.25832431  .00001791  00000+0  82930-4 0  9997
2 69646  97.4459  97.5147 0026471 252.2212 107.6135 15.21137439  4542
HOKUSHIN-1              
1 69648U 98067YH  26200.22309060  .00014688  00000+0  25435-3 0  9993
2 69648  51.6319 141.2443 0006208 344.8705  15.2098 15.51137061  4623
STARLINK-37656          
1 69649U 26143A   26200.09199608  .00013813  00000+0  25506-3 0  9998
2 69649  97.2859 244.0136 0000912 100.9866 259.1488 15.49204494  5484
STARLINK-37646          
1 69650U 26143B   26198.40359773 -.00159329  00000+0 -30305-2 0  9999
2 69650  97.2850 242.4838 0003494 139.4005 220.7507 15.48770998  5233
STARLINK-37749          
1 69651U 26143C   26200.02515428  .00025616  00000+0  47075-3 0  9995
2 69651  97.2843 244.1041 0001219  94.4380 265.7010 15.49211916  5486
STARLINK-37819          
1 69652U 26143D   26198.09895882  .00037410  00000+0  68551-3 0  9991
2 69652  97.2815 242.1313 0001683  91.4316 268.7128 15.49219289  5188
STARLINK-37729          
1 69653U 26143E   26200.58335648 -.02328272  00000+0 -25950-1 0  9996
2 69653  97.2852 245.2209 0001473  76.1829   4.9317 15.65960881  5666
STARLINK-37838          
1 69654U 26143F   26200.58335648 -.02899970  00000+0 -72031-1 0  9997
2 69654  97.2857 244.7115 0001092  73.5604 248.5879 15.43913628  5663
STARLINK-37884          
1 69655U 26143G   26200.58335648  .00043093  00000+0  11902-2 0  9992
2 69655  97.3061 244.5916 0001623  97.0933 313.4975 15.36932533  5662
STARLINK-37876          
1 69656U 26143H   26200.58335648  .00061008  00000+0  16790-2 0  9999
2 69656  97.2849 244.6713 0000950 101.8790 134.5769 15.36953643  5566
STARLINK-37784          
1 69657U 26143J   26200.55434970  .00023375  00000+0  42988-3 0  9999
2 69657  97.2838 244.6082 0000322   5.8981 354.2274 15.49209192  5493
STARLINK-37851          
1 69658U 26143K   26198.07193549  .00020222  00000+0  37230-3 0  9999
2 69658  97.2843 242.1702 0000622  94.0044 266.1279 15.49205906  5119
STARLINK-37229          
1 69659U 26143L   26200.58335648  .00055575  00000+0  17130-2 0  9993
2 69659  97.2848 244.6273 0001829  89.7869  38.0883 15.33409808  5602
STARLINK-37556          
1 69660U 26143M   26200.58335648  .00044342  00000+0  13692-2 0  9994
2 69660  97.2844 244.6055 0001490 104.8155 338.0725 15.33412206  5603
STARLINK-37867          
1 69661U 26143N   26200.58335648  .00054901  00000+0  16902-2 0  9994
2 69661  97.2849 244.6384 0001499  60.7550  97.1131 15.33451181  5566
STARLINK-37852          
1 69662U 26143P   26200.58335648 -.02720230  00000+0 -67301-1 0  9992
2 69662  97.2840 244.6341 0002187  87.6449  42.7131 15.44408787  5563
STARLINK-37554          
1 69663U 26143Q   26200.58335648  .00055840  00000+0  15373-2 0  9990
2 69663  97.2849 244.6289 0001499 106.3353  33.6281 15.36967050  5606
STARLINK-37830          
1 69664U 26143R   26200.58335648  .00056516  00000+0  15569-2 0  9999
2 69664  97.2848 244.6088 0001228  77.3585  18.6563 15.36945397  5557
STARLINK-37837          
1 69665U 26143S   26200.11535321  .00016108  00000+0  44705-3 0  9997
2 69665  97.2825 244.1348 0000572  75.1318 284.9990 15.36985958  5423
STARLINK-37943          
1 69666U 26143T   26200.58335648 -.02725862  00000+0 -69449-1 0  9997
2 69666  97.2857 244.6513 0002005 105.9000  63.3807 15.43558726  5569
STARLINK-37941          
1 69667U 26143U   26200.58335648  .00044939  00000+0  12416-2 0  9996
2 69667  97.2839 244.6601 0001463  61.4646 143.2017 15.36911743  5562
STARLINK-37930          
1 69668U 26143V   26198.08308824  .00029225  00000+0  53610-3 0  9997
2 69668  97.2839 242.1534 0001166 117.7877 242.3492 15.49238300  5116
STARLINK-37945          
1 69669U 26143W   26198.07018358  .00021140  00000+0  38917-3 0  9998
2 69669  97.2808 242.1687 0000806  71.0791 289.0547 15.49200166  5117
STARLINK-37948          
1 69670U 26143X   26200.37880723  .00050704  00000+0  92617-3 0  9995
2 69670  97.2838 244.3889 0000498 100.5245 259.6063 15.49244730  5468
STARLINK-37949          
1 69671U 26143Y   26200.09604700  .00025709  00000+0  47243-3 0  9996
2 69671  97.2817 244.1599 0001009 145.3850 214.7468 15.49213450  5422
STARLINK-37946          
1 69672U 26143Z   26200.59895322 -.00040750  00000+0 -75761-3 0  9995
2 69672  97.2809 244.6997 0003642 355.4287   4.6930 15.48948833  5502
TJS-26A                 
1 69674U 26144A   26200.28521499 -.00000354  00000+0  00000+0 0  9990
2 69674   6.9427 323.2330 0004082 349.6881 194.3820  1.00271652   260
STARLINK-38005          
1 69677U 26145A   26200.56011397  .00094165  00000+0  62491-3 0  9994
2 69677  97.2838  47.6078 0001134  83.5509 276.5886 15.75203109  3867
STARLINK-38009          
1 69678U 26145B   26200.55835124  .00108055  00000+0  71586-3 0  9995
2 69678  97.2835  47.6107 0000475 115.2834 244.8481 15.75200912  3867
