OBJECT_NAME,OBJECT_ID,EPOCH,MEAN_MOTION,ECCENTRICITY,INCLINATION,RA_OF_ASC_NODE,ARG_OF_PERICENTER,MEAN_ANOMALY,EPHEMERIS_TYPE,CLASSIFICATION_TYPE,NORAD_CAT_ID,ELEMENT_SET_NO,REV_AT_EPOCH,BSTAR,MEAN_MOTION_DOT,MEAN_MOTION_DDOT
VICTUS HAZE PUMA,2026-142A,2026-07-19T06:11:59.220384,15.21137439,.0026471,97.4459,97.5147,252.2212,107.6135,0,U,69646,999,454,.82930199E-4,.1791E-4,0
HOKUSHIN-1,1998-067YH,2026-07-19T05:21:15.027840,15.51137061,.00062088,51.6319,141.2443,344.8705,15.2098,0,U,69648,999,462,.25435348E-3,.14688E-3,0
STARLINK-37656,2026-143A,2026-07-19T02:12:28.461312,15.49204494,.00009123,97.2859,244.0136,100.9866,259.1488,0,U,69649,999,548,.25506332E-3,.13813E-3,0
STARLINK-37646,2026-143B,2026-07-17T09:41:10.843872,15.48770998,.0003494,97.2850,242.4838,139.4005,220.7507,0,U,69650,999,523,-.30305E-2,-.159329E-2,0
STARLINK-37749,2026-143C,2026-07-19T00:36:13.329792,15.49211916,.00012193,97.2843,244.1041,94.4380,265.7010,0,U,69651,999,548,.47074806E-3,.25616E-3,0
STARLINK-37819,2026-143D,2026-07-17T02:22:30.042048,15.49219289,.00016833,97.2815,242.1313,91.4316,268.7128,0,U,69652,999,518,.68551182E-3,.3741E-3,0
STARLINK-37729,2026-143E,2026-07-19T14:00:01.999872,15.65960881,.00014739,97.2852,245.2209,76.1829,4.9317,0,U,69653,999,566,-.25949582E-1,-.2328272E-1,0
STARLINK-37838,2026-143F,2026-07-19T14:00:01.999872,15.43913628,.0001092,97.2857,244.7115,73.5604,248.5879,0,U,69654,999,566,-.72030895E-1,-.289997E-1,0
STARLINK-37884,2026-143G,2026-07-19T14:00:01.999872,15.36932533,.00016235,97.3061,244.5916,97.0933,313.4975,0,U,69655,999,566,.11901893E-2,.43093E-3,0
STARLINK-37876,2026-143H,2026-07-19T14:00:01.999872,15.36953643,.00009506,97.2849,244.6713,101.8790,134.5769,0,U,69656,999,556,.16790061E-2,.61008E-3,0
STARLINK-37784,2026-143J,2026-07-19T13:18:15.814080,15.49209192,.0000322,97.2838,244.6082,5.8981,354.2274,0,U,69657,999,549,.42988431E-3,.23375E-3,0
STARLINK-37851,2026-143K,2026-07-17T01:43:35.226336,15.49205906,.00006228,97.2843,242.1702,94.0044,266.1279,0,U,69658,999,511,.37230415E-3,.20222E-3,0
STARLINK-37229,2026-143L,2026-07-19T14:00:01.999872,15.33409808,.00018297,97.2848,244.6273,89.7869,38.0883,0,U,69659,999,560,.17130014E-2,.55575E-3,0
STARLINK-37556,2026-143M,2026-07-19T14:00:01.999872,15.33412206,.00014905,97.2844,244.6055,104.8155,338.0725,0,U,69660,999,560,.13691767E-2,.44342E-3,0
STARLINK-37867,2026-143N,2026-07-19T14:00:01.999872,15.33451181,.00014994,97.2849,244.6384,60.7550,97.1131,0,U,69661,999,556,.16902436E-2,.54901E-3,0
STARLINK-37852,2026-143P,2026-07-19T14:00:01.999872,15.44408787,.00021874,97.2840,244.6341,87.6449,42.7131,0,U,69662,999,556,-.67301223E-1,-.272023E-1,0
STARLINK-37554,2026-143Q,2026-07-19T14:00:01.999872,15.36967050,.00014997,97.2849,244.6289,106.3353,33.6281,0,U,69663,999,560,.15373236E-2,.5584E-3,0
STARLINK-37830,2026-143R,2026-07-19T14:00:01.999872,15.36945397,.00012283,97.2848,244.6088,77.3585,18.6563,0,U,69664,999,555,.155687E-2,.56516E-3,0
STARLINK-37837,2026-143S,2026-07-19T02:46:06.517344,15.36985958,.00005727,97.2825,244.1348,75.1318,284.9990,0,U,69665,999,542,.44704564E-3,.16108E-3,0
STARLINK-37943,2026-143T,2026-07-19T14:00:01.999872,15.43558726,.00020058,97.2857,244.6513,105.9000,63.3807,0,U,69666,999,556,-.69448669E-1,-.2725862E-1,0
STARLINK-37941,2026-143U,2026-07-19T14:00:01.999872,15.36911743,.00014636,97.2839,244.6601,61.4646,143.2017,0,U,69667,999,556,.12416033E-2,.44939E-3,0
STARLINK-37930,2026-143V,2026-07-17T01:59:38.823936,15.49238300,.00011666,97.2839,242.1534,117.7877,242.3492,0,U,69668,999,511,.53609935E-3,.29225E-3,0
STARLINK-37945,2026-143W,2026-07-17T01:41:03.861312,15.49200166,.00008062,97.2808,242.1687,71.0791,289.0547,0,U,69669,999,511,.38917037E-3,.2114E-3,0
STARLINK-37948,2026-143X,2026-07-19T09:05:28.944672,15.49244730,.00004984,97.2838,244.3889,100.5245,259.6063,0,U,69670,999,546,.92617082E-3,.50704E-3,0
STARLINK-37949,2026-143Y,2026-07-19T02:18:18.460800,15.49213450,.00010096,97.2817,244.1599,145.3850,214.7468,0,U,69671,999,542,.47242762E-3,.25709E-3,0
STARLINK-37946,2026-143Z,2026-07-19T14:22:29.558208,15.48948833,.00036427,97.2809,244.6997,355.4287,4.6930,0,U,69672,999,550,-.75760998E-3,-.4075E-3,0
TJS-26A,2026-144A,2026-07-19T06:50:42.575136,1.00271652,.00040823,6.9427,323.2330,349.6881,194.3820,0,U,69674,999,26,0,-.354E-5,0
STARLINK-38005,2026-145A,2026-07-19T13:26:33.847008,15.75203109,.00011341,97.2838,47.6078,83.5509,276.5886,0,U,69677,999,386,.62490771E-3,.94165E-3,0
STARLINK-38009,2026-145B,2026-07-19T13:24:01.547136,15.75200912,.00004758,97.2835,47.6107,115.2834,244.8481,0,U,69678,999,386,.71586045E-3,.108055E-2,0
